IRIDIUM 166             
1 43570U 18061B   25011.63580903  .00000018  00000+0 -74004-6 0  9998
2 43570  86.3963 274.6692 0002190  93.9713 266.1733 14.34219303338648
IRIDIUM 158             
1 43571U 18061C   25011.25525999  .00000227  00000+0  73978-4 0  9999
2 43571  86.3958 274.8376 0001815  86.6595 273.4808 14.34218871338557
IRIDIUM 165             
1 43572U 18061D   25011.14110209  .00000471  00000+0  16100-3 0  9996
2 43572  86.3962 274.9220 0002276  84.5094 275.6361 14.34217792338565
IRIDIUM 155             
1 43573U 18061E   25011.24258400  .00000496  00000+0  17009-3 0  9990
2 43573  86.3958 274.7745 0001839  92.1300 268.0106 14.34216421338549
IRIDIUM 154             
1 43574U 18061F   25011.22354752  .00000473  00000+0  16179-3 0  9998
2 43574  86.3962 274.8901 0002098  84.1801 275.9634 14.34219044338597
IRIDIUM 163             
1 43575U 18061G   25011.27428807  .00000348  00000+0  11712-3 0  9996
2 43575  86.3962 274.8009 0001979  82.2491 277.8929 14.34218947338575
IRIDIUM 156             
1 43576U 18061H   25011.24891724  .00000307  00000+0  10239-3 0  9994
2 43576  86.3959 274.8180 0001981  95.7155 264.4267 14.34219438338563
IRIDIUM 164             
1 43577U 18061J   25011.22989745  .00000509  00000+0  17461-3 0  9992
2 43577  86.3960 274.8581 0002327  83.7474 276.3987 14.34217291338608
